STARLINK-30592          
1 58102U 23161F   26068.55874102 -.00001107  00000+0 -25260-4 0  9992
2 58102  53.1603 165.9946 0001124  86.1642 273.9487 15.30182666134401
TOMORROW-S2             
1 60485U 24149T   26068.75188364  .00008133  00000+0  27683-3 0  9990
2 60485  97.3857 150.0385 0001648 234.3331 125.7757 15.30674935 86869
